{"type": "FeatureCollection", "features": [ {"type": "Feature", "properties": {"norad_id": 31010, "name": "FENGYUN 1C DEB", "group": "fengyun-1c-debris", "lat": 13.0355635631994, "lon": -30.926170757371064, "alt_km": 884.3334860500217, "timestamp": "2025-12-22T04:03:39.449235+00:00", "meta": {"OBJECT_NAME": "FENGYUN 1C DEB", "OBJECT_ID": "1999-025BDC", "EPOCH": "2025-12-21T15:29:23.505216", "MEAN_MOTION": 14.25926133, "ECCENTRICITY": 0.0113533, "INCLINATION": 101.7249, "RA_OF_ASC_NODE": 145.6192, "ARG_OF_PERICENTER": 331.1393, "MEAN_ANOMALY": 28.3526, "EPHEMERIS_TYPE": 0, "CLASSIFICATION_TYPE": "U", "NORAD_CAT_ID": 31010, "ELEMENT_SET_NO": 999, "REV_AT_EPOCH": 95756, "BSTAR": 0.0025084, "MEAN_MOTION_DOT": 6.333e-05, "MEAN_MOTION_DDOT": 0}, "tle": {"line1": "1 31010U 99025BDC 25355.64541094  .00006333  00000+0  25084-2 0  9998", "line2": "2 31010 101.7249 145.6192 0113533 331.1393  28.3526 14.25926133957562"}}, "geometry": {"type": "Point", "coordinates": [-30.926170757371064, 13.0355635631994]}}, {"type": "Feature", "properties": {"norad_id": 31012, "name": "FENGYUN 1C DEB", "group": "fengyun-1c-debris", "lat": -24.14579856533153, "lon": -101.50834614105247, "alt_km": 825.6849874225991, "timestamp": "2025-12-22T04:03:39.449257+00:00", "meta": {"OBJECT_NAME": "FENGYUN 1C DEB", "OBJECT_ID": "1999-025BDE", "EPOCH": "2025-12-20T05:41:42.187776", "MEAN_MOTION": 14.27869509, "ECCENTRICITY": 0.0081451, "INCLINATION": 98.9115, "RA_OF_ASC_NODE": 252.4881, "ARG_OF_PERICENTER": 229.3893, "MEAN_ANOMALY": 260.3237, "EPHEMERIS_TYPE": 0, "CLASSIFICATION_TYPE": "U", "NORAD_CAT_ID": 31012, "ELEMENT_SET_NO": 999, "REV_AT_EPOCH": 97854, "BSTAR": 0.00013145, "MEAN_MOTION_DOT": 2.9e-06, "MEAN_MOTION_DDOT": 0}, "tle": {"line1": "1 31012U 99025BDE 25354.23729384  .00000290  00000+0  13145-3 0  9996", "line2": "2 31012  98.9115 252.4881 0081451 229.3893 260.3237 14.27869509978544"}}, "geometry": {"type": "Point", "coordinates": [-101.50834614105247, -24.14579856533153]}}, {"type": "Feature", "properties": {"norad_id": 31014, "name": "FENGYUN 1C DEB", "group": "fengyun-1c-debris", "lat": -43.37161933628381, "lon": -20.048552800296612, "alt_km": 960.3295989074632, "timestamp": "2025-12-22T04:03:39.449268+00:00", "meta": {"OBJECT_NAME": "FENGYUN 1C DEB", "OBJECT_ID": "1999-025BDG", "EPOCH": "2025-12-21T17:06:24.852096", "MEAN_MOTION": 13.9849347, "ECCENTRICITY": 0.0088311, "INCLINATION": 98.8693, "RA_OF_ASC_NODE": 331.0273, "ARG_OF_PERICENTER": 168.7055, "MEAN_ANOMALY": 10.2094, "EPHEMERIS_TYPE": 0, "CLASSIFICATION_TYPE": "U", "NORAD_CAT_ID": 31014, "ELEMENT_SET_NO": 999, "REV_AT_EPOCH": 95961, "BSTAR": -7.0213e-05, "MEAN_MOTION_DOT": -1.46e-06, "MEAN_MOTION_DDOT": 0}, "tle": {"line1": "1 31014U 99025BDG 25355.71278764 -.00000146  00000+0 -70213-4 0  9995", "line2": "2 31014  98.8693 331.0273 0088311 168.7055  10.2094 13.98493470959610"}}, "geometry": {"type": "Point", "coordinates": [-20.048552800296612, -43.37161933628381]}}, {"type": "Feature", "properties": {"norad_id": 31016, "name": "FENGYUN 1C DEB", "group": "fengyun-1c-debris", "lat": 71.76819653719642, "lon": -15.06297689991847, "alt_km": 862.6632411950877, "timestamp": "2025-12-22T04:03:39.449278+00:00", "meta": {"OBJECT_NAME": "FENGYUN 1C DEB", "OBJECT_ID": "1999-025BDJ", "EPOCH": "2025-12-19T00:18:24.276672", "MEAN_MOTION": 14.30504416, "ECCENTRICITY": 0.01120117, "INCLINATION": 98.4358, "RA_OF_ASC_NODE": 8.6522, "ARG_OF_PERICENTER": 255.4442, "MEAN_ANOMALY": 132.8317, "EPHEMERIS_TYPE": 0, "CLASSIFICATION_TYPE": "U", "NORAD_CAT_ID": 31016, "ELEMENT_SET_NO": 999, "REV_AT_EPOCH": 97560, "BSTAR": 0.00022139429, "MEAN_MOTION_DOT": 5.73e-06, "MEAN_MOTION_DDOT": 0}, "tle": {"line1": "1 31016U 99025BDJ 25353.01278098  .00000573  00000+0  22139-3 0  9993", "line2": "2 31016  98.4358   8.6522 0112011 255.4442 132.8317 14.30504416975605"}}, "geometry": {"type": "Point", "coordinates": [-15.06297689991847, 71.76819653719642]}}, {"type": "Feature", "properties": {"norad_id": 31017, "name": "FENGYUN 1C DEB", "group": "fengyun-1c-debris", "lat": 39.049443103547766, "lon": -25.167350016489262, "alt_km": 839.9108644117778, "timestamp": "2025-12-22T04:03:39.449291+00:00", "meta": {"OBJECT_NAME": "FENGYUN 1C DEB", "OBJECT_ID": "1999-025BDK", "EPOCH": "2025-12-17T21:54:38.423808", "MEAN_MOTION": 14.08831106, "ECCENTRICITY": 0.01129483, "INCLINATION": 98.6798, "RA_OF_ASC_NODE": 337.852, "ARG_OF_PERICENTER": 335.5494, "MEAN_ANOMALY": 87.9981, "EPHEMERIS_TYPE": 0, "CLASSIFICATION_TYPE": "U", "NORAD_CAT_ID": 31017, "ELEMENT_SET_NO": 999, "REV_AT_EPOCH": 96369, "BSTAR": 0.00040732725, "MEAN_MOTION_DOT": 7.03e-06, "MEAN_MOTION_DDOT": 0}, "tle": {"line1": "1 31017U 99025BDK 25351.91294472  .00000703  00000+0  40733-3 0  9990", "line2": "2 31017  98.6798 337.8520 0112948 335.5494  87.9981 14.08831106963694"}}, "geometry": {"type": "Point", "coordinates": [-25.167350016489262, 39.049443103547766]}}, {"type": "Feature", "properties": {"norad_id": 31018, "name": "FENGYUN 1C DEB", "group": "fengyun-1c-debris", "lat": 2.453865599685793, "lon": -96.531987269395, "alt_km": 829.0033084721172, "timestamp": "2025-12-22T04:03:39.449301+00:00", "meta": {"OBJECT_NAME": "FENGYUN 1C DEB", "OBJECT_ID": "1999-025BDL", "EPOCH": "2025-12-21T17:03:52.070976", "MEAN_MOTION": 14.16975908, "ECCENTRICITY": 0.005857, "INCLINATION": 99.0249, "RA_OF_ASC_NODE": 82.613, "ARG_OF_PERICENTER": 100.8925, "MEAN_ANOMALY": 259.8847, "EPHEMERIS_TYPE": 0, "CLASSIFICATION_TYPE": "U", "NORAD_CAT_ID": 31018, "ELEMENT_SET_NO": 999, "REV_AT_EPOCH": 96182, "BSTAR": 0.0011432, "MEAN_MOTION_DOT": 2.29e-05, "MEAN_MOTION_DDOT": 0}, "tle": {"line1": "1 31018U 99025BDL 25355.71101934  .00002290  00000+0  11432-2 0  9999", "line2": "2 31018  99.0249  82.6130 0058570 100.8925 259.8847 14.16975908961827"}}, "geometry": {"type": "Point", "coordinates": [-96.531987269395, 2.453865599685793]}}, {"type": "Feature", "properties": {"norad_id": 31019, "name": "FENGYUN 1C DEB", "group": "fengyun-1c-debris", "lat": 17.980521856772164, "lon": 13.750438732577246, "alt_km": 1873.5473492705069, "timestamp": "2025-12-22T04:03:39.449311+00:00", "meta": {"OBJECT_NAME": "FENGYUN 1C DEB", "OBJECT_ID": "1999-025BDM", "EPOCH": "2025-12-21T19:04:30.482400", "MEAN_MOTION": 11.8299238, "ECCENTRICITY": 0.1118223, "INCLINATION": 98.7026, "RA_OF_ASC_NODE": 190.6549, "ARG_OF_PERICENTER": 266.0498, "MEAN_ANOMALY": 114.5316, "EPHEMERIS_TYPE": 0, "CLASSIFICATION_TYPE": "U", "NORAD_CAT_ID": 31019, "ELEMENT_SET_NO": 999, "REV_AT_EPOCH": 55288, "BSTAR": 0.0023777, "MEAN_MOTION_DOT": 8.64e-06, "MEAN_MOTION_DDOT": 0}, "tle": {"line1": "1 31019U 99025BDM 25355.79479725  .00000864  00000+0  23777-2 0  9994", "line2": "2 31019  98.7026 190.6549 1118223 266.0498 114.5316 11.82992380552887"}}, "geometry": {"type": "Point", "coordinates": [13.750438732577246, 17.980521856772164]}}, {"type": "Feature", "properties": {"norad_id": 31021, "name": "FENGYUN 1C DEB", "group": "fengyun-1c-debris", "lat": 39.43917305715009, "lon": -66.10628061010236, "alt_km": 577.8574665172646, "timestamp": "2025-12-22T04:03:39.449324+00:00", "meta": {"OBJECT_NAME": "FENGYUN 1C DEB", "OBJECT_ID": "1999-025BDP", "EPOCH": "2025-12-14T13:05:53.511072", "MEAN_MOTION": 14.75277457, "ECCENTRICITY": 0.02681864, "INCLINATION": 98.3471, "RA_OF_ASC_NODE": 99.084, "ARG_OF_PERICENTER": 236.1155, "MEAN_ANOMALY": 121.428, "EPHEMERIS_TYPE": 0, "CLASSIFICATION_TYPE": "U", "NORAD_CAT_ID": 31021, "ELEMENT_SET_NO": 999, "REV_AT_EPOCH": 73459, "BSTAR": 0.00058085842, "MEAN_MOTION_DOT": 7.026e-05, "MEAN_MOTION_DDOT": 0}, "tle": {"line1": "1 31021U 99025BDP 25348.54575823  .00007026  00000+0  58086-3 0  9997", "line2": "2 31021  98.3471  99.0840 0268186 236.1155 121.4280 14.75277457734590"}}, "geometry": {"type": "Point", "coordinates": [-66.10628061010236, 39.43917305715009]}}, {"type": "Feature", "properties": {"norad_id": 31022, "name": "FENGYUN 1C DEB", "group": "fengyun-1c-debris", "lat": 36.11503012387622, "lon": -126.98174541218647, "alt_km": 883.2978362030562, "timestamp": "2025-12-22T04:03:39.449334+00:00", "meta": {"OBJECT_NAME": "FENGYUN 1C DEB", "OBJECT_ID": "1999-025BDQ", "EPOCH": "2025-12-20T22:31:38.032032", "MEAN_MOTION": 13.90456454, "ECCENTRICITY": 0.0110263, "INCLINATION": 99.5164, "RA_OF_ASC_NODE": 238.7889, "ARG_OF_PERICENTER": 99.9307, "MEAN_ANOMALY": 261.4317, "EPHEMERIS_TYPE": 0, "CLASSIFICATION_TYPE": "U", "NORAD_CAT_ID": 31022, "ELEMENT_SET_NO": 999, "REV_AT_EPOCH": 62122, "BSTAR": 0.00031869, "MEAN_MOTION_DOT": 3.7e-06, "MEAN_MOTION_DDOT": 0}, "tle": {"line1": "1 31022U 99025BDQ 25354.93863463  .00000370  00000+0  31869-3 0  9993", "line2": "2 31022  99.5164 238.7889 0110263  99.9307 261.4317 13.90456454621227"}}, "geometry": {"type": "Point", "coordinates": [-126.98174541218647, 36.11503012387622]}}, {"type": "Feature", "properties": {"norad_id": 31023, "name": "FENGYUN 1C DEB", "group": "fengyun-1c-debris", "lat": -39.80564420178755, "lon": -11.188669013654788, "alt_km": 910.9782146486859, "timestamp": "2025-12-22T04:03:39.449364+00:00", "meta": {"OBJECT_NAME": "FENGYUN 1C DEB", "OBJECT_ID": "1999-025BDR", "EPOCH": "2025-12-20T19:49:13.315584", "MEAN_MOTION": 14.06693358, "ECCENTRICITY": 0.00824044, "INCLINATION": 98.8149, "RA_OF_ASC_NODE": 340.0727, "ARG_OF_PERICENTER": 198.6079, "MEAN_ANOMALY": 161.2072, "EPHEMERIS_TYPE": 0, "CLASSIFICATION_TYPE": "U", "NORAD_CAT_ID": 31023, "ELEMENT_SET_NO": 999, "REV_AT_EPOCH": 69615, "BSTAR": 0.00023624773, "MEAN_MOTION_DOT": 3.61e-06, "MEAN_MOTION_DDOT": 0}, "tle": {"line1": "1 31023U 99025BDR 25354.82584856  .00000361  00000+0  23625-3 0  9999", "line2": "2 31023  98.8149 340.0727 0082404 198.6079 161.2072 14.06693358696152"}}, "geometry": {"type": "Point", "coordinates": [-11.188669013654788, -39.80564420178755]}}]}